NORAD_CAT_ID,OBJECT_NAME,OBJECT_TYPE,EPOCH,MEAN_MOTION,ECCENTRICITY,INCLINATION,RA_OF_ASC_NODE,ARG_OF_PERICENTER,MEAN_ANOMALY,BSTAR,MEAN_MOTION_DOT,MEAN_MOTION_DDOT,TLE_LINE0,TLE_LINE1,TLE_LINE2,SEMIMAJOR_AXIS,PERIOD,APOGEE,PERIGEE,DECAYED
53635.0,STARLINK-4587,PAYLOAD,2024-07-25 19:38:55,15.08834906,9.28e-05,53.2188,1.0775,84.5532,275.5566,9.6517e-05,1.248e-05,0.0,0 STARLINK-4587,1 53635U 22104AZ  24207.81870275  .00001248  00000-0  96517-4 0  9991,2 53635  53.2188   1.0775 0000928  84.5532 275.5566 15.08834906105856,6917.896,95.438,540.403,539.119,0.0
53635.0,STARLINK-4587,PAYLOAD,2024-07-26 09:57:24,15.08840016,0.0001348,53.2194,358.4031,75.2897,284.8245,5.6381e-05,6.1e-06,0.0,0 STARLINK-4587,1 53635U 22104AZ  24208.41486290  .00000610  00000-0  56381-4 0  9995,2 53635  53.2194 358.4031 0001348  75.2897 284.8245 15.08840016106964,6917.88,95.438,540.678,538.813,0.0
53635.0,STARLINK-4587,PAYLOAD,2024-07-26 16:18:55,15.08846084,0.0001021,53.2181,357.2138,86.1148,273.9961,0.0002019,2.927e-05,0.0,0 STARLINK-4587,1 53635U 22104AZ  24208.67981338  .00002927  00000-0  20190-3 0  9997,2 53635  53.2181 357.2138 0001021  86.1148 273.9961 15.08846084105989,6917.862,95.437,540.433,539.02,0.0
53635.0,STARLINK-4587,PAYLOAD,2024-07-27 03:26:38,15.08842928,0.0001168,53.218,355.133,73.45,286.6621,0.00011769,1.586e-05,0.0,0 STARLINK-4587,1 53635U 22104AZ  24209.14349742  .00001586  00000-0  11769-3 0  9999,2 53635  53.2180 355.1330 0001168  73.4500 286.6621 15.08842928106058,6917.871,95.437,540.544,538.928,0.0
53635.0,STARLINK-4587,PAYLOAD,2024-07-27 09:48:11,15.08834569,0.0001634,53.2185,353.9435,84.6086,275.5093,4.564e-05,4.38e-06,0.0,0 STARLINK-4587,1 53635U 22104AZ  24209.40846710  .00000438  00000-0  45640-4 0  9996,2 53635  53.2185 353.9435 0001634  84.6086 275.5093 15.08834569106092,6917.897,95.438,540.892,538.632,0.0
53635.0,STARLINK-4587,PAYLOAD,2024-07-27 19:20:30,15.0883545,0.0001537,53.2186,352.1603,79.6539,280.4626,5.1851e-05,5.37e-06,0.0,0 STARLINK-4587,1 53635U 22104AZ  24209.80590821  .00000537  00000-0  51851-4 0  9990,2 53635  53.2186 352.1603 0001537  79.6539 280.4626 15.08835450107177,6917.894,95.438,540.823,538.696,0.0
53635.0,STARLINK-4587,PAYLOAD,2024-07-28 12:49:44,15.08845214,0.0001419,53.2187,348.889,85.6201,274.4953,0.00011499,1.543e-05,0.0,0 STARLINK-4587,1 53635U 22104AZ  24210.53454157  .00001543  00000-0  11499-3 0  9994,2 53635  53.2187 348.8890 0001419  85.6201 274.4953 15.08845214106264,6917.864,95.437,540.711,538.748,0.0
53635.0,STARLINK-4587,PAYLOAD,2024-07-28 17:35:53,15.08850917,0.0001272,53.2182,347.9959,87.8499,272.2639,0.00015822,2.232e-05,0.0,0 STARLINK-4587,1 53635U 22104AZ  24210.73325966  .00002232  00000-0  15822-3 0  9991,2 53635  53.2182 347.9959 0001272  87.8499 272.2639 15.08850917107315,6917.847,95.437,540.592,538.832,0.0
53635.0,STARLINK-4587,PAYLOAD,2024-07-29 17:26:40,15.08845036,0.0001313,53.2195,343.5344,94.1192,265.995,0.00014329,1.994e-05,0.0,0 STARLINK-4587,1 53635U 22104AZ  24211.72686045  .00001994  00000-0  14329-3 0  9994,2 53635  53.2195 343.5344 0001313  94.1192 265.9950 15.08845036106440,6917.865,95.437,540.638,538.822,0.0
53635.0,STARLINK-4587,PAYLOAD,2024-07-30 01:23:36,15.08846678,0.0001273,53.2195,342.0475,93.3082,266.8056,8.3889e-05,1.048e-05,0.0,0 STARLINK-4587,1 53635U 22104AZ  24212.05805948  .00001048  00000-0  83889-4 0  9994,2 53635  53.2195 342.0475 0001273  93.3082 266.8056 15.08846678107512,6917.86,95.437,540.606,538.844,0.0
53635.0,STARLINK-4587,PAYLOAD,2024-07-30 15:42:05,15.08839606,0.0001528,53.2188,339.3724,94.1632,265.9535,-2.5266e-05,-6.9e-06,0.0,0 STARLINK-4587,1 53635U 22104AZ  24212.65422740 -.00000690  00000-0 -25266-4 0  9994,2 53635  53.2188 339.3724 0001528  94.1632 265.9535 15.08839606106584,6917.882,95.438,540.804,538.69,0.0
53635.0,STARLINK-4587,PAYLOAD,2024-07-31 13:57:28,15.08816956,0.0001843,53.2197,335.2103,87.7345,272.3858,0.00050317,7.724e-05,0.0,0 STARLINK-4587,1 53635U 22104AZ  24213.58158419  .00007724  00000-0  50317-3 0  9993,2 53635  53.2197 335.2103 0001843  87.7345 272.3858 15.08816956107741,6917.951,95.439,541.091,538.541,0.0
53635.0,STARLINK-4587,PAYLOAD,2024-07-31 17:08:14,15.08851555,0.0001583,53.2193,334.6163,105.665,254.4517,0.00019091,2.753e-05,0.0,0 STARLINK-4587,1 53635U 22104AZ  24213.71405230  .00002753  00000-0  19091-3 0  9995,2 53635  53.2193 334.6163 0001583 105.6650 254.4517 15.08851555106742,6917.845,95.437,540.805,538.615,0.0
53635.0,STARLINK-4587,PAYLOAD,2024-08-01 01:05:11,15.08839009,0.0002423,53.22,333.1285,80.3953,279.7313,5.3612e-05,5.65e-06,0.0,0 STARLINK-4587,1 53635U 22104AZ  24214.04526811  .00000565  00000-0  53612-4 0  9998,2 53635  53.2200 333.1285 0002423  80.3953 279.7313 15.08839009106798,6917.883,95.438,541.425,538.072,0.0
53635.0,STARLINK-4587,PAYLOAD,2024-08-01 12:12:53,15.08826048,0.0001649,53.2187,331.0441,70.1291,289.9878,3.0097e-05,1.91e-06,0.0,0 STARLINK-4587,1 53635U 22104AZ  24214.50895684  .00000191  00000-0  30097-4 0  9993,2 53635  53.2187 331.0441 0001649  70.1291 289.9878 15.08826048106860,6917.923,95.438,540.929,538.647,0.0
53635.0,STARLINK-4587,PAYLOAD,2024-08-01 16:59:03,15.08828776,0.0002393,53.2186,330.1515,73.1137,287.0118,6.3941e-05,7.29e-06,0.0,0 STARLINK-4587,1 53635U 22104AZ  24214.70767689  .00000729  00000-0  63941-4 0  9999,2 53635  53.2186 330.1515 0002393  73.1137 287.0118 15.08828776107913,6917.915,95.438,541.435,538.124,0.0
53635.0,STARLINK-4587,PAYLOAD,2024-08-02 13:39:03,15.08836197,0.000121,53.2177,326.289,84.7001,275.4129,5.0907e-05,5.22e-06,0.0,0 STARLINK-4587,1 53635U 22104AZ  24215.56879430  .00000522  00000-0  50907-4 0  9991,2 53635  53.2177 326.2890 0001210  84.7001 275.4129 15.08836197107021,6917.892,95.438,540.594,538.92,0.0
53635.0,STARLINK-4587,PAYLOAD,2024-08-02 15:14:26,15.08846488,0.0001261,53.2182,325.9917,92.7804,267.3333,-1.7841e-06,-3.16e-06,0.0,0 STARLINK-4587,1 53635U 22104AZ  24215.63502930 -.00000316  00000-0 -17841-5 0  9991,2 53635  53.2182 325.9917 0001261  92.7804 267.3333 15.08846488107031,6917.861,95.437,540.598,538.853,0.0
53635.0,STARLINK-4587,PAYLOAD,2024-08-03 13:29:50,15.08840855,0.0001503,53.2167,321.8283,79.556,280.5601,0.00019183,2.766e-05,0.0,0 STARLINK-4587,1 53635U 22104AZ  24216.56238950  .00002766  00000-0  19183-3 0  9990,2 53635  53.2167 321.8283 0001503  79.5560 280.5601 15.08840855108191,6917.878,95.438,540.783,538.703,0.0
53635.0,STARLINK-4587,PAYLOAD,2024-08-03 16:40:35,15.08855757,0.0001309,53.218,321.2284,93.236,266.8782,0.00021094,3.072e-05,0.0,0 STARLINK-4587,1 53635U 22104AZ  24216.69485801  .00003072  00000-0  21094-3 0  9998,2 53635  53.2180 321.2284 0001309  93.2360 266.8782 15.08855757107199,6917.832,95.437,540.603,538.792,0.0
53635.0,STARLINK-4587,PAYLOAD,2024-08-04 13:20:37,15.08850306,0.0001408,53.2179,317.3672,96.7068,263.4084,0.00014918,2.088e-05,0.0,0 STARLINK-4587,1 53635U 22104AZ  24217.55598625  .00002088  00000-0  14918-3 0  9996,2 53635  53.2179 317.3672 0001408  96.7068 263.4084 15.08850306107325,6917.849,95.437,540.688,538.74,0.0
53635.0,STARLINK-4587,PAYLOAD,2024-08-04 16:31:23,15.08858439,0.0001349,53.2178,316.7703,95.6412,264.4734,0.00024137,3.557e-05,0.0,0 STARLINK-4587,1 53635U 22104AZ  24217.68846101  .00003557  00000-0  24137-3 0  9991,2 53635  53.2178 316.7703 0001349  95.6412 264.4734 15.08858439108360,6917.824,95.436,540.622,538.756,0.0
53635.0,STARLINK-4587,PAYLOAD,2024-08-05 13:11:23,15.08852407,0.0001642,53.218,312.9073,88.0498,272.0682,-1.0909e-05,-4.62e-06,0.0,0 STARLINK-4587,1 53635U 22104AZ  24218.54958067 -.00000462  00000-0 -10909-4 0  9999,2 53635  53.2180 312.9073 0001642  88.0498 272.0682 15.08852407107474,6917.842,95.437,540.843,538.572,0.0
53635.0,STARLINK-4587,PAYLOAD,2024-08-06 11:26:48,15.08830489,0.0001617,53.218,308.7437,98.0671,262.0505,-0.00012488,-2.274e-05,0.0,0 STARLINK-4587,1 53635U 22104AZ  24219.47695551 -.00002274  00000-0 -12488-3 0  9994,2 53635  53.2180 308.7437 0001617  98.0671 262.0505 15.08830489107612,6917.909,95.438,540.893,538.656,0.0
53635.0,STARLINK-4587,PAYLOAD,2024-08-06 13:02:11,15.08832311,0.0001541,53.2174,308.4427,82.9807,277.136,-0.00012381,-2.257e-05,0.0,0 STARLINK-4587,1 53635U 22104AZ  24219.54319436 -.00002257  00000-0 -12381-3 0  9990,2 53635  53.2174 308.4427 0001541  82.9807 277.1360 15.08832311108646,6917.904,95.438,540.835,538.703,0.0
53635.0,STARLINK-4587,PAYLOAD,2024-08-07 11:17:35,15.08846371,0.0001665,53.2174,304.2866,94.9373,265.1809,0.00017285,2.464e-05,0.0,0 STARLINK-4587,1 53635U 22104AZ  24220.47055148  .00002464  00000-0  17285-3 0  9997,2 53635  53.2174 304.2866 0001665  94.9373 265.1809 15.08846371107763,6917.861,95.437,540.878,538.574,0.0
53635.0,STARLINK-4587,PAYLOAD,2024-08-08 12:43:46,15.08842816,0.0001306,53.217,299.5291,95.7926,264.3215,0.00026137,3.875e-05,0.0,0 STARLINK-4587,1 53635U 22104AZ  24221.53039927  .00003875  00000-0  26137-3 0  9995,2 53635  53.2170 299.5291 0001306  95.7926 264.3215 15.08842816108945,6917.872,95.437,540.64,538.833,0.0
53635.0,STARLINK-4587,PAYLOAD,2024-08-08 22:16:05,15.08844593,0.0001254,53.2167,297.7461,91.8956,268.218,0.0002237,3.275e-05,0.0,0 STARLINK-4587,1 53635U 22104AZ  24221.92783879  .00003275  00000-0  22370-3 0  9999,2 53635  53.2167 297.7461 0001254  91.8956 268.2180 15.08844593109008,6917.866,95.437,540.599,538.864,0.0
53635.0,STARLINK-4587,PAYLOAD,2024-08-09 14:09:55,15.08866412,0.0001303,53.2157,294.7665,101.7352,258.3786,0.00052742,8.122e-05,0.0,0 STARLINK-4587,1 53635U 22104AZ  24222.59022383  .00008122  00000-0  52742-3 0  9991,2 53635  53.2157 294.7665 0001303 101.7352 258.3786 15.08866412109103,6917.8,95.436,540.566,538.763,0.0
53635.0,STARLINK-4587,PAYLOAD,2024-08-10 04:28:24,15.08846066,0.0001813,53.2163,292.0944,77.2391,282.8804,0.00016276,2.304e-05,0.0,0 STARLINK-4587,1 53635U 22104AZ  24223.18639575  .00002304  00000-0  16276-3 0  9992,2 53635  53.2163 292.0944 0001813  77.2391 282.8804 15.08846066108179,6917.862,95.437,540.981,538.473,0.0
